CTC2_L_00108001-01
1 64904U 24893AU  26037.47791667  .00000000  00000+0  00000-0 0  9993
2 64904  40.0000   0.0000 0000000   0.0000   0.0000 14.51731110    14
CTC2_L_00108001-02
1 64905U 26896UQ  26037.47791667  .00000000  00000+0  00000-0 0  9999
2 64905  40.0000   0.0000 0000000   0.0000  90.0000 14.51731110    14
CTC2_L_00108001-03
1 64906U 23041VV  26037.47791667  .00000000  00000+0  00000-0 0  9999
2 64906  40.0000   0.0000 0000000   0.0000 180.0000 14.51731110    15
CTC2_L_00108001-04
1 64907U 22756TB  26037.47791667  .00000000  00000+0  00000-0 0  9992
2 64907  40.0000   0.0000 0000000   0.0000 270.0000 14.51731110    16
CTC2_L_00108002-01
1 64908U 22194CH  26037.47791667  .00000000  00000+0  00000-0 0  9999
2 64908  40.0000  12.0000 0000000   0.0000  12.0000 14.51731110    14
CTC2_L_00108002-02
1 64909U 24172EV  26037.47791667  .00000000  00000+0  00000-0 0  9998
2 64909  40.0000  12.0000 0000000   0.0000 102.0000 14.51731110    15
CTC2_L_00108002-03
1 64910U 22950WQ  26037.47791667  .00000000  00000+0  00000-0 0  9992
2 64910  40.0000  12.0000 0000000   0.0000 192.0000 14.51731110    16
CTC2_L_00108002-04
1 64911U 25612OP  26037.47791667  .00000000  00000+0  00000-0 0  9991
2 64911  40.0000  12.0000 0000000   0.0000 282.0000 14.51731110    17
CTC2_L_00108003-01
1 64912U 26423FI  26037.47791667  .00000000  00000+0  00000-0 0  9993
2 64912  40.0000  24.0000 0000000   0.0000  24.0000 14.51731110    15
CTC2_L_00108003-02
1 64913U 23832VH  26037.47791667  .00000000  00000+0  00000-0 0  9995
2 64913  40.0000  24.0000 0000000   0.0000 114.0000 14.51731110    16
CTC2_L_00108003-03
1 64914U 26417YC  26037.47791667  .00000000  00000+0  00000-0 0  9998
2 64914  40.0000  24.0000 0000000   0.0000 204.0000 14.51731110    17
CTC2_L_00108003-04
1 64915U 23230JQ  26037.47791667  .00000000  00000+0  00000-0 0  9999
2 64915  40.0000  24.0000 0000000   0.0000 294.0000 14.51731110    17
CTC2_L_00108004-01
1 64916U 24509LF  26037.47791667  .00000000  00000+0  00000-0 0  9990
2 64916  40.0000  36.0000 0000000   0.0000  36.0000 14.51731110    15
CTC2_L_00108004-02
1 64917U 26318DH  26037.47791667  .00000000  00000+0  00000-0 0  9991
2 64917  40.0000  36.0000 0000000   0.0000 126.0000 14.51731110    16
CTC2_L_00108004-03
1 64918U 24968ZX  26037.47791667  .00000000  00000+0  00000-0 0  9991
2 64918  40.0000  36.0000 0000000   0.0000 216.0000 14.51731110    17
CTC2_L_00108004-04
1 64919U 25044DU  26037.47791667  .00000000  00000+0  00000-0 0  9998
2 64919  40.0000  36.0000 0000000   0.0000 306.0000 14.51731110    18
CTC2_L_00108005-01
1 64920U 24079VX  26037.47791667  .00000000  00000+0  00000-0 0  9997
2 64920  40.0000  48.0000 0000000   0.0000  48.0000 14.51731110    16
CTC2_L_00108005-02
1 64921U 22173GE  26037.47791667  .00000000  00000+0  00000-0 0  9991
2 64921  40.0000  48.0000 0000000   0.0000 138.0000 14.51731110    17
CTC2_L_00108005-03
1 64922U 23683FD  26037.47791667  .00000000  00000+0  00000-0 0  9999
2 64922  40.0000  48.0000 0000000   0.0000 228.0000 14.51731110    18
CTC2_L_00108005-04
1 64923U 25272XQ  26037.47791667  .00000000  00000+0  00000-0 0  9996
2 64923  40.0000  48.0000 0000000   0.0000 318.0000 14.51731110    19
CTC2_L_00108006-01
1 64924U 22611YC  26037.47791667  .00000000  00000+0  00000-0 0  9991
2 64924  40.0000  60.0000 0000000   0.0000  60.0000 14.51731110    18
CTC2_L_00108006-02
1 64925U 24721QZ  26037.47791667  .00000000  00000+0  00000-0 0  9996
2 64925  40.0000  60.0000 0000000   0.0000 150.0000 14.51731110    19
CTC2_L_00108006-03
1 64926U 25973QH  26037.47791667  .00000000  00000+0  00000-0 0  9997
2 64926  40.0000  60.0000 0000000   0.0000 240.0000 14.51731110    10
CTC2_L_00108006-04
1 64927U 25003RW  26037.47791667  .00000000  00000+0  00000-0 0  9992
2 64927  40.0000  60.0000 0000000   0.0000 330.0000 14.51731110    11
CTC2_L_00108007-01
1 64928U 26121QD  26037.47791667  .00000000  00000+0  00000-0 0  9995
2 64928  40.0000  72.0000 0000000   0.0000  72.0000 14.51731110    18
CTC2_L_00108007-02
1 64929U 24115VC  26037.47791667  .00000000  00000+0  00000-0 0  9997
2 64929  40.0000  72.0000 0000000   0.0000 162.0000 14.51731110    19
CTC2_L_00108007-03
1 64930U 25609YR  26037.47791667  .00000000  00000+0  00000-0 0  9998
2 64930  40.0000  72.0000 0000000   0.0000 252.0000 14.51731110    11
CTC2_L_00108007-04
1 64931U 22884QT  26037.47791667  .00000000  00000+0  00000-0 0  9991
2 64931  40.0000  72.0000 0000000   0.0000 342.0000 14.51731110    12
CTC2_L_00108008-01
1 64932U 22315MQ  26037.47791667  .00000000  00000+0  00000-0 0  9991
2 64932  40.0000  84.0000 0000000   0.0000  84.0000 14.51731110    19
CTC2_L_00108008-02
1 64933U 23413YE  26037.47791667  .00000000  00000+0  00000-0 0  9992
2 64933  40.0000  84.0000 0000000   0.0000 174.0000 14.51731110    10
CTC2_L_00108008-03
1 64934U 25856SG  26037.47791667  .00000000  00000+0  00000-0 0  9996
2 64934  40.0000  84.0000 0000000   0.0000 264.0000 14.51731110    11
CTC2_L_00108008-04
1 64935U 22688DH  26037.47791667  .00000000  00000+0  00000-0 0  9997
2 64935  40.0000  84.0000 0000000   0.0000 354.0000 14.51731110    12
CTC2_L_00108009-01
1 64936U 25055ME  26037.47791667  .00000000  00000+0  00000-0 0  9999
2 64936  40.0000  96.0000 0000000   0.0000  96.0000 14.51731110    19
CTC2_L_00108009-02
1 64937U 24078JR  26037.47791667  .00000000  00000+0  00000-0 0  9994
2 64937  40.0000  96.0000 0000000   0.0000 186.0000 14.51731110    10
CTC2_L_00108009-03
1 64938U 24248NQ  26037.47791667  .00000000  00000+0  00000-0 0  9994
2 64938  40.0000  96.0000 0000000   0.0000 276.0000 14.51731110    11
CTC2_L_00108009-04
1 64939U 22545AM  26037.47791667  .00000000  00000+0  00000-0 0  9993
2 64939  40.0000  96.0000 0000000   0.0000   6.0000 14.51731110    13
CTC2_L_00108010-01
1 64940U 24675RU  26037.47791667  .00000000  00000+0  00000-0 0  9991
2 64940  40.0000 108.0000 0000000   0.0000 108.0000 14.51731110    12
CTC2_L_00108010-02
1 64941U 23182NP  26037.47791667  .00000000  00000+0  00000-0 0  9994
2 64941  40.0000 108.0000 0000000   0.0000 198.0000 14.51731110    12
CTC2_L_00108010-03
1 64942U 25479QH  26037.47791667  .00000000  00000+0  00000-0 0  9996
2 64942  40.0000 108.0000 0000000   0.0000 288.0000 14.51731110    13
CTC2_L_00108010-04
1 64943U 26412RC  26037.47791667  .00000000  00000+0  00000-0 0  9995
2 64943  40.0000 108.0000 0000000   0.0000  18.0000 14.51731110    15
CTC2_L_00108011-01
1 64944U 25575LK  26037.47791667  .00000000  00000+0  00000-0 0  9995
2 64944  40.0000 120.0000 0000000   0.0000 120.0000 14.51731110    14
CTC2_L_00108011-02
1 64945U 23122WS  26037.47791667  .00000000  00000+0  00000-0 0  9992
2 64945  40.0000 120.0000 0000000   0.0000 210.0000 14.51731110    15
CTC2_L_00108011-03
1 64946U 23377ZC  26037.47791667  .00000000  00000+0  00000-0 0  9995
2 64946  40.0000 120.0000 0000000   0.0000 300.0000 14.51731110    16
CTC2_L_00108011-04
1 64947U 26846IQ  26037.47791667  .00000000  00000+0  00000-0 0  9990
2 64947  40.0000 120.0000 0000000   0.0000  30.0000 14.51731110    17
CTC2_L_00108012-01
1 64948U 22555ZP  26037.47791667  .00000000  00000+0  00000-0 0  9994
2 64948  40.0000 132.0000 0000000   0.0000 132.0000 14.51731110    14
CTC2_L_00108012-02
1 64949U 25246QQ  26037.47791667  .00000000  00000+0  00000-0 0  9995
2 64949  40.0000 132.0000 0000000   0.0000 222.0000 14.51731110    15
CTC2_L_00108012-03
1 64950U 23367RL  26037.47791667  .00000000  00000+0  00000-0 0  9999
2 64950  40.0000 132.0000 0000000   0.0000 312.0000 14.51731110    17
CTC2_L_00108012-04
1 64951U 25517MZ  26037.47791667  .00000000  00000+0  00000-0 0  9999
2 64951  40.0000 132.0000 0000000   0.0000  42.0000 14.51731110    18
CTC2_L_00108013-01
1 64952U 23931CK  26037.47791667  .00000000  00000+0  00000-0 0  9998
2 64952  40.0000 144.0000 0000000   0.0000 144.0000 14.51731110    15
CTC2_L_00108013-02
1 64953U 22471NM  26037.47791667  .00000000  00000+0  00000-0 0  9997
2 64953  40.0000 144.0000 0000000   0.0000 234.0000 14.51731110    16
CTC2_L_00108013-03
1 64954U 24623GK  26037.47791667  .00000000  00000+0  00000-0 0  9999
2 64954  40.0000 144.0000 0000000   0.0000 324.0000 14.51731110    17
CTC2_L_00108013-04
1 64955U 26287WN  26037.47791667  .00000000  00000+0  00000-0 0  9998
2 64955  40.0000 144.0000 0000000   0.0000  54.0000 14.51731110    18
CTC2_L_00108014-01
1 64956U 22172OL  26037.47791667  .00000000  00000+0  00000-0 0  9998
2 64956  40.0000 156.0000 0000000   0.0000 156.0000 14.51731110    15
CTC2_L_00108014-02
1 64957U 26508LL  26037.47791667  .00000000  00000+0  00000-0 0  9996
2 64957  40.0000 156.0000 0000000   0.0000 246.0000 14.51731110    16
CTC2_L_00108014-03
1 64958U 25016LX  26037.47791667  .00000000  00000+0  00000-0 0  9990
2 64958  40.0000 156.0000 0000000   0.0000 336.0000 14.51731110    17
CTC2_L_00108014-04
1 64959U 24218CV  26037.47791667  .00000000  00000+0  00000-0 0  9994
2 64959  40.0000 156.0000 0000000   0.0000  66.0000 14.51731110    18
CTC2_L_00108015-01
1 64960U 26920JM  26037.47791667  .00000000  00000+0  00000-0 0  9998
2 64960  40.0000 168.0000 0000000   0.0000 168.0000 14.51731110    16
CTC2_L_00108015-02
1 64961U 23518ME  26037.47791667  .00000000  00000+0  00000-0 0  9999
2 64961  40.0000 168.0000 0000000   0.0000 258.0000 14.51731110    17
CTC2_L_00108015-03
1 64962U 23604PP  26037.47791667  .00000000  00000+0  00000-0 0  9996
2 64962  40.0000 168.0000 0000000   0.0000 348.0000 14.51731110    18
CTC2_L_00108015-04
1 64963U 24902MK  26037.47791667  .00000000  00000+0  00000-0 0  9999
2 64963  40.0000 168.0000 0000000   0.0000  78.0000 14.51731110    19
CTC2_L_00108016-01
1 64964U 25152LJ  26037.47791667  .00000000  00000+0  00000-0 0  9998
2 64964  40.0000 180.0000 0000000   0.0000 180.0000 14.51731110    18
CTC2_L_00108016-02
1 64965U 25840JL  26037.47791667  .00000000  00000+0  00000-0 0  9993
2 64965  40.0000 180.0000 0000000   0.0000 270.0000 14.51731110    19
